FENGYUN 1C DEB          
1 31919U 99025CLW 17345.60104491  .00000124  00000-0  52594-4 0  9999
2 31919  99.0548 260.2233 0112224 180.0608 301.9231 14.39350585549867
